[{"OBJECT_NAME":"IRS-P6 (RESOURCESAT-1)","OBJECT_ID":"2003-046A","EPOCH":"2026-03-10T00:23:01.313952","MEAN_MOTION":14.36117534,"ECCENTRICITY":0.00629144,"INCLINATION":98.2042,"RA_OF_ASC_NODE":110.3286,"ARG_OF_PERICENTER":280.126,"MEAN_ANOMALY":140.7181,"EPHEMERIS_TYPE":0,"CLASSIFICATION_TYPE":"U","NORAD_CAT_ID":28051,"ELEMENT_SET_NO":999,"REV_AT_EPOCH":16629,"BSTAR":9.8466414e-5,"MEAN_MOTION_DOT":2.52e-6,"MEAN_MOTION_DDOT":0},{"OBJECT_NAME":"CZ-6A DEB","OBJECT_ID":"2024-140GU","EPOCH":"2026-03-09T14:06:59.865696","MEAN_MOTION":14.12953489,"ECCENTRICITY":0.0081223,"INCLINATION":89.1165,"RA_OF_ASC_NODE":294.6823,"ARG_OF_PERICENTER":172.3259,"MEAN_ANOMALY":187.9192,"EPHEMERIS_TYPE":0,"CLASSIFICATION_TYPE":"U","NORAD_CAT_ID":60817,"ELEMENT_SET_NO":999,"REV_AT_EPOCH":8079,"BSTAR":0.00068512,"MEAN_MOTION_DOT":1.33e-5,"MEAN_MOTION_DDOT":0}]
